UITMSAT-1               
1 43589U 98067PD  19166.79208027  .00010926  00000-0  12997-3 0  9996
2 43589  51.6365 357.4174 0005961 141.0116 219.1309 15.61694032 48298
MAYA-1                  
1 43590U 98067PE  19166.78721575  .00010563  00000-0  12577-3 0  9996
2 43590  51.6367 357.3897 0005997 140.9492 219.1936 15.61713072 48222
BHUTAN-1                
1 43591U 98067PF  19166.77798753  .00010298  00000-0  12250-3 0  9991
2 43591  51.6378 357.3464 0006227 142.1750 217.9682 15.61769861 48224
SIRIUSSAT-1             
1 43595U 98067PG  19166.82668897  .00009803  00000-0  12048-3 0  9991
2 43595  51.6369 358.4010 0004019 104.7588 255.3851 15.60983444 47392
SIRIUSSAT-2             
1 43596U 98067PH  19166.79275666  .00009765  00000-0  12078-3 0  9996
2 43596  51.6379 358.9581 0004579 104.3171 255.8331 15.60821123 47389
TANUSHA-3               
1 43597U 98067PJ  19167.04903624  .00012498  00000-0  14431-3 0  9990
2 43597  51.6362 356.1116 0004091 119.6388 240.5014 15.62320642 47442
SURFSAT                 
1 43614U 18070B   19167.18931805  .00001649  00000-0  44930-4 0  9997
2 43614  93.0224   2.6419 0014227 323.9952  36.0342 15.37511635 42024
CP7 (DAVE)              
1 43615U 18070C   19166.93455814  .00001501  00000-0  41019-4 0  9993
2 43615  93.0229   2.5382 0014449 324.2637  35.7648 15.37434176 41981
ELFIN-B                 
1 43616U 18070D   19166.81333290  .00002448  00000-0  65453-4 0  9993
2 43616  93.0190   2.4029 0015325 328.6664  31.3675 15.38039293 41971
ELFIN-A                 
1 43617U 18070E   19166.61208406  .00002276  00000-0  60815-4 0  9998
2 43617  93.0247   2.5329 0014386 326.4526  33.5815 15.38078795 41945
CUBEBEL-1 (BSUSAT-1)    
1 43666U 18083E   19167.24132976  .00000854  00000-0  45823-4 0  9996
2 43666  97.5199 191.7376 0014753 190.4046 230.4153 15.17571810 34916
DEBRISSAT-2             
1 43680U 98067PR  19166.96920872  .00016198  00000-0  18016-3 0  9991
2 43680  51.6386 356.3553 0004952 137.6708 222.4671 15.63030217 56175
CICERO 10               
1 43690U 18088A   19166.92713369  .00000743  00000-0  32951-4 0  9998
2 43690  85.0368 320.3259 0013900 210.4793 149.5642 15.19647894 32939
IRVINE01                
1 43693U 18088D   19167.11557428  .00001789  00000-0  77770-4 0  9994
2 43693  85.0345 319.8162 0017748 195.7718 164.2973 15.21360504 32977
PROXIMA I               
1 43694U 18088E   19166.94224500  .00000759  00000-0  31893-4 0  9999
2 43694  85.0312 319.7664 0019070 187.8638 172.2308 15.21374558 32965
PROXIMA II              
1 43696U 18088G   19166.87562553  .00000757  00000-0  31811-4 0  9994
2 43696  85.0313 319.8113 0019092 188.0654 172.0284 15.21380009 32940
FACSAT-1                
1 43721U 18096C   19167.11292389  .00000987  00000-0  40791-4 0  9999
2 43721  97.4597 236.9825 0017386 344.3943  15.6757 15.26278091 30342
CENTAURI-2              
1 43722U 18096D   19167.15937352  .00001246  00000-0  50449-4 0  9990
2 43722  97.4599 237.0728 0017544 344.9262  15.1451 15.26492994 30341
INNOSAT-2               
1 43738U 18096V   19167.15936137  .00001618  00000-0  60394-4 0  9990
2 43738  97.4602 237.6854 0024188 355.2806   4.8202 15.28637646 30391
SIRION PATHFINDER-2     
1 43759U 18099B   19167.17569520 -.00000270  00000-0 -19344-4 0  9990
2 43759  97.7452 239.1916 0013621 334.8362  25.2193 14.95127702 29042
CORVUS-BC 4             
1 43767U 18099K   19167.18084454 -.00000245  00000-0 -17310-4 0  9991
2 43767  97.7437 238.9946 0011177 339.2297  20.8468 14.94570211 29046
SHIELDS 1               
1 43850U 18104B   19167.08095183  .00000041  00000-0  00000+0 0  9996
2 43850  85.0293  58.1777 0014920 353.7142   6.3900 15.21077889 27628
STF-1                   
1 43852U 18104D   19166.69062585  .00000041  00000-0  00000-0 0  9995
2 43852  85.0347  58.6587 0015114   6.1618 353.9837 15.20591703 27554
ZACUBE-2                
1 43907U 18111AH  19167.20980200  .00000407  00000-0  19510-4 0  9991
2 43907  97.2909  72.5151 0021799   5.1200 151.6703 15.24183167 26063
LUME 1                  
1 43908U 18111AJ  19167.04312750  .00000778  00000-0  34494-4 0  9992
2 43908  97.2908  72.3671 0021867   5.7284 354.4200 15.24323647 26044
AOBA VELOX-IV           
1 43940U 19003J   19167.11594569  .00001502  00000-0  64738-4 0  9997
2 43940  97.2775 225.1046 0026592  82.0604 340.6792 15.23786364 22698
CATSAT-2                
1 44029U 98067PV  19166.97857962  .00007828  00000-0  11564-3 0  9990
2 44029  51.6399   4.6996 0005649 134.5880 225.5573 15.56363580 21151
DELPHINI                
1 44030U 98067PW  19166.78071011  .00007697  00000-0  11331-3 0  9990
2 44030  51.6390   5.6195 0005300 133.3341 226.8094 15.56489377 21097
UNITE                   
1 44031U 98067PX  19167.00791241  .00004926  00000-0  77351-4 0  9998
2 44031  51.6395   4.8887 0003915 128.5103 231.6240 15.55632457 21123
TECHEDSAT 8             
1 44032U 98067PY  19166.78275554  .00018623  00000-0  23606-3 0  9999
2 44032  51.6386   4.1352 0004367 134.7415 225.3934 15.59496681 21098
CATSAT-1                
1 44033U 98067PZ  19166.97852050  .00008953  00000-0  13121-3 0  9999
2 44033  51.6399   4.6997 0005427 133.9542 226.1898 15.56372466 21069
